[{"OBJECT_NAME":"STARLINK-35792","OBJECT_ID":"2025-298T","EPOCH":"2026-03-09T22:52:54.146208","MEAN_MOTION":14.99149972,"ECCENTRICITY":0.00026013,"INCLINATION":70.003,"RA_OF_ASC_NODE":13.9233,"ARG_OF_PERICENTER":243.077,"MEAN_ANOMALY":117.0124,"EPHEMERIS_TYPE":0,"CLASSIFICATION_TYPE":"U","NORAD_CAT_ID":67092,"ELEMENT_SET_NO":999,"REV_AT_EPOCH":1325,"BSTAR":0.00049307107,"MEAN_MOTION_DOT":5.921e-5,"MEAN_MOTION_DDOT":0},{"OBJECT_NAME":"CZ-4C DEB","OBJECT_ID":"2015-069D","EPOCH":"2026-03-09T14:03:55.988352","MEAN_MOTION":14.76537169,"ECCENTRICITY":0.0113533,"INCLINATION":97.7994,"RA_OF_ASC_NODE":293.1388,"ARG_OF_PERICENTER":335.1928,"MEAN_ANOMALY":24.3848,"EPHEMERIS_TYPE":0,"CLASSIFICATION_TYPE":"U","NORAD_CAT_ID":42671,"ELEMENT_SET_NO":999,"REV_AT_EPOCH":54179,"BSTAR":0.00082265,"MEAN_MOTION_DOT":6.325e-5,"MEAN_MOTION_DDOT":0}]
